{
  "type": "FeatureCollection",
  "name": "desm prot int",
  "crs": {
    "type": "name",
    "properties": {
      "name": "urn:ogc:def:crs:OGC:1.3:CRS84"
    }
  },
  "features": [
    {
      "type": "Feature",
      "properties": {
        "ANO ENTRADA": 2019,
        "ÁREA TOTAL DA GLEBA/M²": null,
        "DATA DE ENTRADA": "2019/10/01",
        "DATA DO CERTIFICADO": null,
        "LOCALIZAÇÃO/ENDEREÇO": null,
        "MUNICIPIO": "MOGI DAS CRUZES",
        "Nº DE UNIDADES HABITACIONAIS": 2,
        "Nº DO CERTIFICADO": null,
        "NOME DO EMPREENDIMENTO": "\"AREA MARYLAND\"",
        "PROPRIETARIO": "MRV ENGENHARIA E PARTICIPAÇÕES",
        "PROTOCOLO": "PROTOCOLO",
        "SITUAÇÃO": "CANCELADO"
      },
      "geometry": {
        "type": "MultiPolygon",
        "coordinates": [
          [
            [
              [
                -46.16229769706819,
                -23.506715827121244
              ],
              [
                -46.15908771635867,
                -23.5056317988798
              ],
              [
                -46.15908244043554,
                -23.504695410566228
              ],
              [
                -46.16296879021513,
                -23.506026558170607
              ],
              [
                -46.16275938370903,
                -23.50625859559914
              ],
              [
                -46.16229769706819,
                -23.506715827121244
              ]
            ]
          ]
        ]
      }
    },
    {
      "type": "Feature",
      "properties": {
        "ANO ENTRADA": 2019,
        "ÁREA TOTAL DA GLEBA/M²": null,
        "DATA DE ENTRADA": "2019/10/01",
        "DATA DO CERTIFICADO": null,
        "LOCALIZAÇÃO/ENDEREÇO": null,
        "MUNICIPIO": "MOGI DAS CRUZES",
        "Nº DE UNIDADES HABITACIONAIS": 5,
        "Nº DO CERTIFICADO": null,
        "NOME DO EMPREENDIMENTO": "\"AREA MAKTUB\"",
        "PROPRIETARIO": "MRV ENGENHARIA E PARTICIPAÇÕES",
        "PROTOCOLO": "PROTOCOLO",
        "SITUAÇÃO": "CANCELADO"
      },
      "geometry": {
        "type": "MultiPolygon",
        "coordinates": [
          [
            [
              [
                -46.166061532071495,
                -23.509785681834455
              ],
              [
                -46.1655625802123,
                -23.51012223517437
              ],
              [
                -46.16530065948907,
                -23.51025732513612
              ],
              [
                -46.164911581637874,
                -23.511164466736812
              ],
              [
                -46.1600810982086,
                -23.50903897362591
              ],
              [
                -46.16276625098335,
                -23.506274315554034
              ],
              [
                -46.16672051084815,
                -23.507988278425024
              ],
              [
                -46.166061532071495,
                -23.509785681834455
              ]
            ]
          ]
        ]
      }
    },
    {
      "type": "Feature",
      "properties": {
        "ANO ENTRADA": 2020,
        "ÁREA TOTAL DA GLEBA/M²": 18910,
        "DATA DE ENTRADA": "2020/10/16",
        "DATA DO CERTIFICADO": "2020-12-15",
        "LOCALIZAÇÃO/ENDEREÇO": "AV. ADHEMAR PEREIRA DE BARROS Nº 5061, AV.SANTA CRUZ, RUA ALBINO MARQUES E RUA SANTO ESTEFANI – CHÁCARA SANTA RITA",
        "MUNICIPIO": "FRANCA",
        "Nº DE UNIDADES HABITACIONAIS": 24,
        "Nº DO CERTIFICADO": "404",
        "NOME DO EMPREENDIMENTO": "SEM DENOMINAÇÃO",
        "PROPRIETARIO": "NADIA RODRIGUES ALVES MARCONDES LUZ LIMA",
        "PROTOCOLO": "PROTOCOLO",
        "SITUAÇÃO": "CERTIFICADO"
      },
      "geometry": {
        "type": "MultiPolygon",
        "coordinates": [
          [
            [
              [
                -47.36310464873914,
                -20.538615284679338
              ],
              [
                -47.36303696863786,
                -20.53859185695196
              ],
              [
                -47.36297970085983,
                -20.53859446003279
              ],
              [
                -47.36291722692019,
                -20.538633506245066
              ],
              [
                -47.360564041859945,
                -20.539937649735315
              ],
              [
                -47.36050417100111,
                -20.539974092866768
              ],
              [
                -47.360470330950456,
                -20.54001313907906
              ],
              [
                -47.3604755371121,
                -20.540065200695423
              ],
              [
                -47.360496361758656,
                -20.540114659230987
              ],
              [
                -47.36053280489012,
                -20.54014329312
              ],
              [
                -47.36057445418322,
                -20.540158911604916
              ],
              [
                -47.36144044195996,
                -20.54000487571551
              ],
              [
                -47.36177447444071,
                -20.53994545897776
              ],
              [
                -47.36213369959371,
                -20.53988819119975
              ],
              [
                -47.362302899846945,
                -20.539875175795657
              ],
              [
                -47.36240441999887,
                -20.539877778876484
              ],
              [
                -47.36249813090835,
                -20.53987517579565
              ],
              [
                -47.36261266646438,
                -20.53989339736139
              ],
              [
                -47.36274021742451,
                -20.539919428169583
              ],
              [
                -47.36278446979842,
                -20.539935046654477
              ],
              [
                -47.36282351601071,
                -20.539940252816134
              ],
              [
                -47.36284173757644,
                -20.539929840492853
              ],
              [
                -47.362867768384625,
                -20.539909015846305
              ],
              [
                -47.362891196111995,
                -20.539885588118935
              ],
              [
                -47.36343524000313,
                -20.538810515740753
              ],
              [
                -47.363445652326405,
                -20.538787088013386
              ],
              [
                -47.363432636922326,
                -20.53876105720518
              ],
              [
                -47.36310464873914,
                -20.538615284679338
              ]
            ]
          ]
        ]
      }
    },
    {
      "type": "Feature",
      "properties": {
        "ANO ENTRADA": 2021,
        "ÁREA TOTAL DA GLEBA/M²": 121352.85,
        "DATA DE ENTRADA": "2021/11/05",
        "DATA DO CERTIFICADO": "2022-11-08",
        "LOCALIZAÇÃO/ENDEREÇO": "AVENIDA PAU-BRASIL – BAIRRO PAU D’ALHO, OU SANTO ANTONIO OU SANTO ANTONIO VELHO, OU AINDA CAMPO DE BOITUVA",
        "MUNICIPIO": "BOITUVA",
        "Nº DE UNIDADES HABITACIONAIS": 23,
        "Nº DO CERTIFICADO": "375",
        "NOME DO EMPREENDIMENTO": "SEM DENOMINAÇÃO",
        "PROPRIETARIO": "TÁTIL INCORPORAÇÃO E CONSTRUÇÃO LTDA",
        "PROTOCOLO": "PROTOCOLO",
        "SITUAÇÃO": "CERTIFICADO"
      },
      "geometry": {
        "type": "MultiPolygon",
        "coordinates": [
          [
            [
              [
                -47.669739489167,
                -23.311708402500056
              ],
              [
                -47.668783694722,
                -23.310789898056047
              ],
              [
                -47.670353885,
                -23.31003579250004
              ],
              [
                -47.670392969167,
                -23.31001608444404
              ],
              [
                -47.670433446389,
                -23.309998942222048
              ],
              [
                -47.67047512,
                -23.30998444972204
              ],
              [
                -47.670517786389,
                -23.309972677222053
              ],
              [
                -47.670561238055996,
                -23.309963682500058
              ],
              [
                -47.670605263333,
                -23.309957509167045
              ],
              [
                -47.67064964749999,
                -23.30995418694406
              ],
              [
                -47.670694174444,
                -23.309953732500052
              ],
              [
                -47.670738627222,
                -23.309956148056045
              ],
              [
                -47.670782789444,
                -23.30996142138905
              ],
              [
                -47.670826445556,
                -23.309969527222055
              ],
              [
                -47.67086938333299,
                -23.30998042583305
              ],
              [
                -47.670911393333,
                -23.309994064444048
              ],
              [
                -47.670952270833,
                -23.31001037638904
              ],
              [
                -47.670991816944,
                -23.310029281944054
              ],
              [
                -47.67102983888899,
                -23.310050689444044
              ],
              [
                -47.671066151111,
                -23.31007449444404
              ],
              [
                -47.67110057722199,
                -23.310100580833048
              ],
              [
                -47.671132949166996,
                -23.31012882166705
              ],
              [
                -47.671162478056,
                -23.310158400833057
              ],
              [
                -47.67274921305601,
                -23.311682385000047
              ],
              [
                -47.672812235277995,
                -23.31173769250005
              ],
              [
                -47.672879281389,
                -23.311788804722053
              ],
              [
                -47.67295002444399,
                -23.311835473333062
              ],
              [
                -47.673024120277994,
                -23.31187747027805
              ],
              [
                -47.67310120722199,
                -23.31191459111105
              ],
              [
                -47.673180910278,
                -23.311946655278042
              ],
              [
                -47.673262841111,
                -23.31197350611104
              ],
              [
                -47.673346600278,
                -23.311995013056055
              ],
              [
                -47.673431779722,
                -23.31201107138904
              ],
              [
                -47.673517964444,
                -23.31202160277804
              ],
              [
                -47.673604734722,
                -23.312026556111054
              ],
              [
                -47.673691668056,
                -23.31202590666705
              ],
              [
                -47.673778340278,
                -23.31201965833304
              ],
              [
                -47.673824606943995,
                -23.312014004722045
              ],
              [
                -47.673830739167,
                -23.312013751111046
              ],
              [
                -47.673836875556,
                -23.31201389333305
              ],
              [
                -47.673842986389,
                -23.312014430556044
              ],
              [
                -47.67384904166699,
                -23.31201536000006
              ],
              [
                -47.673855011944,
                -23.31201667750005
              ],
              [
                -47.673860868056,
                -23.31201837638905
              ],
              [
                -47.673866581944,
                -23.312020448333044
              ],
              [
                -47.673872125,
                -23.312022883333057
              ],
              [
                -47.673877470833,
                -23.312025669444054
              ],
              [
                -47.67388259333299,
                -23.312028793333052
              ],
              [
                -47.673887467222,
                -23.31203223972204
              ],
              [
                -47.673892069166996,
                -23.312035991667052
              ],
              [
                -47.673896376388996,
                -23.312040030833046
              ],
              [
                -47.673900368055996,
                -23.312044337778055
              ],
              [
                -47.673904024722,
                -23.31204889111104
              ],
              [
                -47.67390732861101,
                -23.31205366916704
              ],
              [
                -47.673910263611,
                -23.312058648611043
              ],
              [
                -47.673912815278,
                -23.312063804722058
              ],
              [
                -47.673914971111,
                -23.31206911277804
              ],
              [
                -47.67391672111099,
                -23.31207454694406
              ],
              [
                -47.673918056111,
                -23.312080080278047
              ],
              [
                -47.673918970277995,
                -23.312085686389047
              ],
              [
                -47.67391945861101,
                -23.31209133777805
              ],
              [
                -47.673919518889,
                -23.312097006667038
              ],
              [
                -47.673919150832994,
                -23.31210266583304
              ],
              [
                -47.673918356389,
                -23.312108287222056
              ],
              [
                -47.673917139167,
                -23.31211384416706
              ],
              [
                -47.673915505278,
                -23.312119308889052
              ],
              [
                -47.673913462778,
                -23.312124655000048
              ],
              [
                -47.67391135222199,
                -23.312129206667052
              ],
              [
                -47.67295456527799,
                -23.314108467222052
              ],
              [
                -47.672531985556,
                -23.313877231111057
              ],
              [
                -47.672183241667,
                -23.313784646389042
              ],
              [
                -47.671964274443994,
                -23.313807698333047
              ],
              [
                -47.6718474025,
                -23.313705113611054
              ],
              [
                -47.671639186388994,
                -23.313710244722056
              ],
              [
                -47.67141532,
                -23.313637643056044
              ],
              [
                -47.671195348889,
                -23.313450069167057
              ],
              [
                -47.67097137944399,
                -23.31338608444405
              ],
              [
                -47.670792772778,
                -23.313267202778054
              ],
              [
                -47.670574426111,
                -23.31319279027804
              ],
              [
                -47.67028227833299,
                -23.31305623472204
              ],
              [
                -47.669983750278,
                -23.312869913333046
              ],
              [
                -47.669588119167,
                -23.31251868500005
              ],
              [
                -47.66937149027801,
                -23.312378839444047
              ],
              [
                -47.669162839167,
                -23.31203506722204
              ],
              [
                -47.669739489167,
                -23.311708402500056
              ]
            ]
          ]
        ]
      }
    },
    {
      "type": "Feature",
      "properties": {
        "ANO ENTRADA": 2007,
        "ÁREA TOTAL DA GLEBA/M²": null,
        "DATA DE ENTRADA": "2007/05/02",
        "DATA DO CERTIFICADO": null,
        "LOCALIZAÇÃO/ENDEREÇO": null,
        "MUNICIPIO": "MOGI DAS CRUZES",
        "Nº DE UNIDADES HABITACIONAIS": 132,
        "Nº DO CERTIFICADO": null,
        "NOME DO EMPREENDIMENTO": null,
        "PROPRIETARIO": "MKP INCORPORADORA E IMOBILIÁRIA  LTDA",
        "PROTOCOLO": "PROTOCOLO",
        "SITUAÇÃO": null
      },
      "geometry": {
        "type": "MultiPolygon",
        "coordinates": [
          [
            [
              [
                -46.129034629264396,
                -23.487443554228165
              ],
              [
                -46.1294912467696,
                -23.487361156731453
              ],
              [
                -46.12947427331311,
                -23.487285957048247
              ],
              [
                -46.12901772019,
                -23.48737588629215
              ],
              [
                -46.128996535771,
                -23.487285652513556
              ],
              [
                -46.1294612865839,
                -23.48719943006425
              ],
              [
                -46.129448331955,
                -23.487116668980143
              ],
              [
                -46.12897126843329,
                -23.487195448306952
              ],
              [
                -46.1289205735403,
                -23.48699621035875
              ],
              [
                -46.1284639889042,
                -23.487082372055855
              ],
              [
                -46.12859958000579,
                -23.48766137509006
              ],
              [
                -46.1287225819353,
                -23.487720742448452
              ],
              [
                -46.12880858074589,
                -23.48775024864916
              ],
              [
                -46.128943414876005,
                -23.487760570366945
              ],
              [
                -46.12904150231049,
                -23.487771158190153
              ],
              [
                -46.12914791606091,
                -23.48780051629865
              ],
              [
                -46.129262559947605,
                -23.48783734696625
              ],
              [
                -46.129365147460405,
                -23.48789686172575
              ],
              [
                -46.12944336555319,
                -23.487971617567563
              ],
              [
                -46.1295378835525,
                -23.488042489092255
              ],
              [
                -46.1296772181389,
                -23.48810173729055
              ],
              [
                -46.1295124957031,
                -23.487458922233145
              ],
              [
                -46.12905996084059,
                -23.487541290223454
              ],
              [
                -46.129034629264396,
                -23.487443554228165
              ]
            ]
          ],
          [
            [
              [
                -46.133799996436494,
                -23.487083471588058
              ],
              [
                -46.133691077479796,
                -23.486749469142346
              ],
              [
                -46.134141922417896,
                -23.486613303556155
              ],
              [
                -46.13405988662489,
                -23.486349741753042
              ],
              [
                -46.1335711009581,
                -23.48649168736645
              ],
              [
                -46.13349953423219,
                -23.486239877063255
              ],
              [
                -46.1338399608819,
                -23.486142034106848
              ],
              [
                -46.1337090527015,
                -23.485688219081652
              ],
              [
                -46.13304866640821,
                -23.485890426209053
              ],
              [
                -46.13317494732569,
                -23.486334032771353
              ],
              [
                -46.133035176107306,
                -23.486371302114055
              ],
              [
                -46.1336554516549,
                -23.48823855865585
              ],
              [
                -46.134599228328,
                -23.48796253053505
              ],
              [
                -46.13426061250149,
                -23.486958901152356
              ],
              [
                -46.133799996436494,
                -23.487083471588058
              ]
            ]
          ],
          [
            [
              [
                -46.128801153261,
                -23.486398259777953
              ],
              [
                -46.1288521362747,
                -23.486631390927354
              ],
              [
                -46.12931280199669,
                -23.486545198572145
              ],
              [
                -46.129265965291,
                -23.486319569823248
              ],
              [
                -46.128801153261,
                -23.486398259777953
              ]
            ]
          ],
          [
            [
              [
                -46.1287581118638,
                -23.486138708130554
              ],
              [
                -46.1287792317822,
                -23.486221410160443
              ],
              [
                -46.1292194815622,
                -23.48613536598365
              ],
              [
                -46.12920247637489,
                -23.48605640034384
              ],
              [
                -46.1287581118638,
                -23.486138708130554
              ]
            ]
          ],
          [
            [
              [
                -46.1273151910868,
                -23.48739574314305
              ],
              [
                -46.1273328357938,
                -23.487550027113063
              ],
              [
                -46.12785465416691,
                -23.48745209817165
              ],
              [
                -46.127824760008096,
                -23.48729790292446
              ],
              [
                -46.1273151910868,
                -23.48739574314305
              ]
            ]
          ],
          [
            [
              [
                -46.1277063820472,
                -23.48656534398375
              ],
              [
                -46.127200706651095,
                -23.486640558754956
              ],
              [
                -46.12727431100299,
                -23.487133390335053
              ],
              [
                -46.1277675792056,
                -23.487039434372555
              ],
              [
                -46.127808344608994,
                -23.487031607101958
              ],
              [
                -46.1277063820472,
                -23.48656534398375
              ]
            ]
          ],
          [
            [
              [
                -46.128089900431306,
                -23.48486682579075
              ],
              [
                -46.1281835687968,
                -23.48531808424515
              ],
              [
                -46.128375176360805,
                -23.485282801924665
              ],
              [
                -46.1282778410738,
                -23.48488052993026
              ],
              [
                -46.128089900431306,
                -23.48486682579075
              ]
            ]
          ],
          [
            [
              [
                -46.127522027819104,
                -23.48482950744555
              ],
              [
                -46.127589563594896,
                -23.485088882357058
              ],
              [
                -46.12794432628289,
                -23.48503358941575
              ],
              [
                -46.1279020879513,
                -23.48486818504524
              ],
              [
                -46.127522027819104,
                -23.48482950744555
              ]
            ]
          ]
        ]
      }
    },
    {
      "type": "Feature",
      "properties": {
        "ANO ENTRADA": 2013,
        "ÁREA TOTAL DA GLEBA/M²": null,
        "DATA DE ENTRADA": "2013/01/23",
        "DATA DO CERTIFICADO": null,
        "LOCALIZAÇÃO/ENDEREÇO": null,
        "MUNICIPIO": "SANTA ISABEL",
        "Nº DE UNIDADES HABITACIONAIS": 26,
        "Nº DO CERTIFICADO": null,
        "NOME DO EMPREENDIMENTO": "CHÁCARA PARAÍSO",
        "PROPRIETARIO": "LÉA CORRÊA PINTO E NORBERT GRUBERGER",
        "PROTOCOLO": "PROTOCOLO",
        "SITUAÇÃO": "CANCELADO"
      },
      "geometry": {
        "type": "MultiPolygon",
        "coordinates": [
          [
            [
              [
                -46.230187913309294,
                -23.328779917213442
              ],
              [
                -46.2312089914796,
                -23.328928991465858
              ],
              [
                -46.2320015222934,
                -23.328977820378547
              ],
              [
                -46.232619917219104,
                -23.32900060256634
              ],
              [
                -46.232774802804094,
                -23.32912551029604
              ],
              [
                -46.23293962504879,
                -23.32942979751706
              ],
              [
                -46.234098065166,
                -23.33080459522815
              ],
              [
                -46.2344990970561,
                -23.331724630308347
              ],
              [
                -46.23460686544681,
                -23.332352222701545
              ],
              [
                -46.234572494925,
                -23.333261970077945
              ],
              [
                -46.23388027039281,
                -23.33366425703716
              ],
              [
                -46.23370262620481,
                -23.33273632746945
              ],
              [
                -46.2334911456367,
                -23.33149007557556
              ],
              [
                -46.232304330091495,
                -23.331662992497552
              ],
              [
                -46.2322739967529,
                -23.331420343087352
              ],
              [
                -46.23212819245959,
                -23.331097037915047
              ],
              [
                -46.2318658772322,
                -23.330869820856755
              ],
              [
                -46.231468903480895,
                -23.330608910498146
              ],
              [
                -46.23062577430619,
                -23.329207921418448
              ],
              [
                -46.2302513809919,
                -23.32906998703955
              ],
              [
                -46.2301439862063,
                -23.329030420539542
              ],
              [
                -46.230187913309294,
                -23.328779917213442
              ]
            ]
          ]
        ]
      }
    },
    {
      "type": "Feature",
      "properties": {
        "ANO ENTRADA": 2010,
        "ÁREA TOTAL DA GLEBA/M²": 72634.8,
        "DATA DE ENTRADA": "2010/08/27",
        "DATA DO CERTIFICADO": "2011-04-19",
        "LOCALIZAÇÃO/ENDEREÇO": "ESTRADA DO CAMPO LIMPO – JARDIM LEBANI",
        "MUNICIPIO": "ITAQUAQUECETUBA",
        "Nº DE UNIDADES HABITACIONAIS": 3,
        "Nº DO CERTIFICADO": "153",
        "NOME DO EMPREENDIMENTO": "RESIDENCIAL JARDIM LEBANI",
        "PROPRIETARIO": "MICHELE LEBANI",
        "PROTOCOLO": "PROTOCOLO",
        "SITUAÇÃO": "CERTIFICADO"
      },
      "geometry": {
        "type": "MultiPolygon",
        "coordinates": [
          [
            [
              [
                -46.3112728182291,
                -23.470559464007742
              ],
              [
                -46.31139329224829,
                -23.47035720896944
              ],
              [
                -46.3116902472959,
                -23.46986263012364
              ],
              [
                -46.31181209527279,
                -23.469659692230245
              ],
              [
                -46.311960812177894,
                -23.469509276383647
              ],
              [
                -46.31238067981419,
                -23.469432228893155
              ],
              [
                -46.31283965247199,
                -23.469367785419752
              ],
              [
                -46.3133076769914,
                -23.46943902845906
              ],
              [
                -46.3136031494956,
                -23.469690970393945
              ],
              [
                -46.31379857396299,
                -23.469915288584154
              ],
              [
                -46.3139119695162,
                -23.47004544979485
              ],
              [
                -46.3140466549467,
                -23.47021272241375
              ],
              [
                -46.314159193939794,
                -23.47042956583954
              ],
              [
                -46.3142490733355,
                -23.470578201626253
              ],
              [
                -46.3144140352301,
                -23.470763308312357
              ],
              [
                -46.3138367140889,
                -23.470806783039055
              ],
              [
                -46.3144162133314,
                -23.472715900934748
              ],
              [
                -46.31419427386749,
                -23.47286202932536
              ],
              [
                -46.3139999141347,
                -23.473257881523445
              ],
              [
                -46.3130342459708,
                -23.47223539139205
              ],
              [
                -46.3123802768308,
                -23.471542941317555
              ],
              [
                -46.3112728182291,
                -23.470559464007742
              ]
            ]
          ]
        ]
      }
    },
    {
      "type": "Feature",
      "properties": {
        "ANO ENTRADA": 2021,
        "ÁREA TOTAL DA GLEBA/M²": 121352.85,
        "DATA DE ENTRADA": "2021/11/05",
        "DATA DO CERTIFICADO": "2022-11-08",
        "LOCALIZAÇÃO/ENDEREÇO": "AVENIDA PAU-BRASIL – BAIRRO PAU D’ALHO, OU SANTO ANTONIO OU SANTO ANTONIO VELHO, OU AINDA CAMPO DE BOITUVA",
        "MUNICIPIO": "BOITUVA",
        "Nº DE UNIDADES HABITACIONAIS": 23,
        "Nº DO CERTIFICADO": "375",
        "NOME DO EMPREENDIMENTO": "SEM DENOMINAÇÃO",
        "PROPRIETARIO": "TÁTIL INCORPORAÇÃO E CONSTRUÇÃO LTDA",
        "PROTOCOLO": "PROTOCOLO",
        "SITUAÇÃO": "CERTIFICADO"
      },
      "geometry": {
        "type": "MultiPolygon",
        "coordinates": [
          [
            [
              [
                -47.669739489167,
                -23.311708402500056
              ],
              [
                -47.668783694722,
                -23.310789898056047
              ],
              [
                -47.670353885,
                -23.31003579250004
              ],
              [
                -47.670392969167,
                -23.31001608444404
              ],
              [
                -47.670433446389,
                -23.309998942222048
              ],
              [
                -47.67047512,
                -23.30998444972204
              ],
              [
                -47.670517786389,
                -23.309972677222053
              ],
              [
                -47.670561238055996,
                -23.309963682500058
              ],
              [
                -47.670605263333,
                -23.309957509167045
              ],
              [
                -47.67064964749999,
                -23.30995418694406
              ],
              [
                -47.670694174444,
                -23.309953732500052
              ],
              [
                -47.670738627222,
                -23.309956148056045
              ],
              [
                -47.670782789444,
                -23.30996142138905
              ],
              [
                -47.670826445556,
                -23.309969527222055
              ],
              [
                -47.67086938333299,
                -23.30998042583305
              ],
              [
                -47.670911393333,
                -23.309994064444048
              ],
              [
                -47.670952270833,
                -23.31001037638904
              ],
              [
                -47.670991816944,
                -23.310029281944054
              ],
              [
                -47.67102983888899,
                -23.310050689444044
              ],
              [
                -47.671066151111,
                -23.31007449444404
              ],
              [
                -47.67110057722199,
                -23.310100580833048
              ],
              [
                -47.671132949166996,
                -23.31012882166705
              ],
              [
                -47.671162478056,
                -23.310158400833057
              ],
              [
                -47.67274921305601,
                -23.311682385000047
              ],
              [
                -47.672812235277995,
                -23.31173769250005
              ],
              [
                -47.672879281389,
                -23.311788804722053
              ],
              [
                -47.67295002444399,
                -23.311835473333062
              ],
              [
                -47.673024120277994,
                -23.31187747027805
              ],
              [
                -47.67310120722199,
                -23.31191459111105
              ],
              [
                -47.673180910278,
                -23.311946655278042
              ],
              [
                -47.673262841111,
                -23.31197350611104
              ],
              [
                -47.673346600278,
                -23.311995013056055
              ],
              [
                -47.673431779722,
                -23.31201107138904
              ],
              [
                -47.673517964444,
                -23.31202160277804
              ],
              [
                -47.673604734722,
                -23.312026556111054
              ],
              [
                -47.673691668056,
                -23.31202590666705
              ],
              [
                -47.673778340278,
                -23.31201965833304
              ],
              [
                -47.673824606943995,
                -23.312014004722045
              ],
              [
                -47.673830739167,
                -23.312013751111046
              ],
              [
                -47.673836875556,
                -23.31201389333305
              ],
              [
                -47.673842986389,
                -23.312014430556044
              ],
              [
                -47.67384904166699,
                -23.31201536000006
              ],
              [
                -47.673855011944,
                -23.31201667750005
              ],
              [
                -47.673860868056,
                -23.31201837638905
              ],
              [
                -47.673866581944,
                -23.312020448333044
              ],
              [
                -47.673872125,
                -23.312022883333057
              ],
              [
                -47.673877470833,
                -23.312025669444054
              ],
              [
                -47.67388259333299,
                -23.312028793333052
              ],
              [
                -47.673887467222,
                -23.31203223972204
              ],
              [
                -47.673892069166996,
                -23.312035991667052
              ],
              [
                -47.673896376388996,
                -23.312040030833046
              ],
              [
                -47.673900368055996,
                -23.312044337778055
              ],
              [
                -47.673904024722,
                -23.31204889111104
              ],
              [
                -47.67390732861101,
                -23.31205366916704
              ],
              [
                -47.673910263611,
                -23.312058648611043
              ],
              [
                -47.673912815278,
                -23.312063804722058
              ],
              [
                -47.673914971111,
                -23.31206911277804
              ],
              [
                -47.67391672111099,
                -23.31207454694406
              ],
              [
                -47.673918056111,
                -23.312080080278047
              ],
              [
                -47.673918970277995,
                -23.312085686389047
              ],
              [
                -47.67391945861101,
                -23.31209133777805
              ],
              [
                -47.673919518889,
                -23.312097006667038
              ],
              [
                -47.673919150832994,
                -23.31210266583304
              ],
              [
                -47.673918356389,
                -23.312108287222056
              ],
              [
                -47.673917139167,
                -23.31211384416706
              ],
              [
                -47.673915505278,
                -23.312119308889052
              ],
              [
                -47.673913462778,
                -23.312124655000048
              ],
              [
                -47.67391135222199,
                -23.312129206667052
              ],
              [
                -47.67295456527799,
                -23.314108467222052
              ],
              [
                -47.672531985556,
                -23.313877231111057
              ],
              [
                -47.672183241667,
                -23.313784646389042
              ],
              [
                -47.671964274443994,
                -23.313807698333047
              ],
              [
                -47.6718474025,
                -23.313705113611054
              ],
              [
                -47.671639186388994,
                -23.313710244722056
              ],
              [
                -47.67141532,
                -23.313637643056044
              ],
              [
                -47.671195348889,
                -23.313450069167057
              ],
              [
                -47.67097137944399,
                -23.31338608444405
              ],
              [
                -47.670792772778,
                -23.313267202778054
              ],
              [
                -47.670574426111,
                -23.31319279027804
              ],
              [
                -47.67028227833299,
                -23.31305623472204
              ],
              [
                -47.669983750278,
                -23.312869913333046
              ],
              [
                -47.669588119167,
                -23.31251868500005
              ],
              [
                -47.66937149027801,
                -23.312378839444047
              ],
              [
                -47.669162839167,
                -23.31203506722204
              ],
              [
                -47.669739489167,
                -23.311708402500056
              ]
            ]
          ]
        ]
      }
    },
    {
      "type": "Feature",
      "properties": {
        "ANO ENTRADA": 2022,
        "ÁREA TOTAL DA GLEBA/M²": null,
        "DATA DE ENTRADA": "2022/04/28",
        "DATA DO CERTIFICADO": null,
        "LOCALIZAÇÃO/ENDEREÇO": "RUA LIBORIO PEREIRA LEITE - S/N - SAO ROQUE - SP",
        "MUNICIPIO": "SAO ROQUE",
        "Nº DE UNIDADES HABITACIONAIS": 16,
        "Nº DO CERTIFICADO": null,
        "NOME DO EMPREENDIMENTO": "\"BELVEDERE SAO ROQUE\"",
        "PROPRIETARIO": "JOSE EDUARDO PINA DE CARVALHO",
        "PROTOCOLO": "PROTOCOLO",
        "SITUAÇÃO": "CANCELADO"
      },
      "geometry": {
        "type": "MultiPolygon",
        "coordinates": [
          [
            [
              [
                -47.11950052737865,
                -23.562125252696383
              ],
              [
                -47.119317826028265,
                -23.56229190657315
              ],
              [
                -47.11918916881879,
                -23.562458889103432
              ],
              [
                -47.119081507581896,
                -23.56259437053479
              ],
              [
                -47.118895979684304,
                -23.563087805832733
              ],
              [
                -47.11877909841699,
                -23.563385321127218
              ],
              [
                -47.1180186934366,
                -23.563340183681934
              ],
              [
                -47.117467200480675,
                -23.56344135357818
              ],
              [
                -47.11700612467943,
                -23.56332259766957
              ],
              [
                -47.11679813636361,
                -23.563390981472857
              ],
              [
                -47.1165911979172,
                -23.563329632660786
              ],
              [
                -47.11623523126579,
                -23.563362725912533
              ],
              [
                -47.11626999663654,
                -23.563028322459097
              ],
              [
                -47.116433593035204,
                -23.56235740451981
              ],
              [
                -47.11650629811805,
                -23.56211946585816
              ],
              [
                -47.11653697194429,
                -23.562077136504648
              ],
              [
                -47.11700778405596,
                -23.560633691327702
              ],
              [
                -47.11718252841376,
                -23.560611453452037
              ],
              [
                -47.11732862011723,
                -23.560585813479502
              ],
              [
                -47.11743327019025,
                -23.560565112511338
              ],
              [
                -47.11757935745209,
                -23.5605355755767
              ],
              [
                -47.11770809326446,
                -23.560510113068414
              ],
              [
                -47.117849813007375,
                -23.560489295269853
              ],
              [
                -47.11796252547983,
                -23.560472275945877
              ],
              [
                -47.118126804747384,
                -23.56046016616622
              ],
              [
                -47.11818699972307,
                -23.56046045056123
              ],
              [
                -47.11818310975895,
                -23.560460450554935
              ],
              [
                -47.118295210920266,
                -23.56047159112128
              ],
              [
                -47.11846532985781,
                -23.56049236901948
              ],
              [
                -47.118714863856326,
                -23.560553434568057
              ],
              [
                -47.119038736468525,
                -23.560702471643975
              ],
              [
                -47.11941006647673,
                -23.560786196505124
              ],
              [
                -47.11959508796713,
                -23.56102217431191
              ],
              [
                -47.119552017164025,
                -23.561353700529196
              ],
              [
                -47.11957111661578,
                -23.561480780848825
              ],
              [
                -47.11961815808589,
                -23.561648499094353
              ],
              [
                -47.11966911367053,
                -23.56194460330777
              ],
              [
                -47.11970694634054,
                -23.562146612991
              ],
              [
                -47.11950052737865,
                -23.562125252696383
              ]
            ]
          ]
        ]
      }
    },
    {
      "type": "Feature",
      "properties": {
        "ANO ENTRADA": 2022,
        "ÁREA TOTAL DA GLEBA/M²": 5874.93,
        "DATA DE ENTRADA": "2022/05/12",
        "DATA DO CERTIFICADO": "2022-10-25",
        "LOCALIZAÇÃO/ENDEREÇO": "RUA ADRIANO PEREZ, ESQUINA COM A RUA BENEDITO HONORATO SANTANA – BAIRRO TORNINOS",
        "MUNICIPIO": "CESARIO LANGE",
        "Nº DE UNIDADES HABITACIONAIS": 20,
        "Nº DO CERTIFICADO": "367",
        "NOME DO EMPREENDIMENTO": "RESIDENCIAL JARDIM PILON III",
        "PROPRIETARIO": "JUPIRA – MINERAÇÃO E AGRO-PECUÁRIA S.A.",
        "PROTOCOLO": "PROTOCOLO",
        "SITUAÇÃO": "CERTIFICADO"
      },
      "geometry": {
        "type": "MultiPolygon",
        "coordinates": [
          [
            [
              [
                -47.907579513889004,
                -23.216108600556044
              ],
              [
                -47.907481390278,
                -23.216033413889047
              ],
              [
                -47.907467135556,
                -23.216021691944043
              ],
              [
                -47.907453800278,
                -23.216009079444046
              ],
              [
                -47.907441449167,
                -23.215995637778047
              ],
              [
                -47.907430142778,
                -23.215981432500048
              ],
              [
                -47.907419936111,
                -23.215966532778044
              ],
              [
                -47.907410878611,
                -23.215951011667048
              ],
              [
                -47.90740301472199,
                -23.21593494416705
              ],
              [
                -47.907396382777996,
                -23.215918408889056
              ],
              [
                -47.907391015,
                -23.21590148611104
              ],
              [
                -47.907386937222,
                -23.215884258611055
              ],
              [
                -47.907384169722,
                -23.21586681027804
              ],
              [
                -47.907383548888994,
                -23.215861044722054
              ],
              [
                -47.907338930278,
                -23.215392125278047
              ],
              [
                -47.907338660556,
                -23.215387408056042
              ],
              [
                -47.9073387475,
                -23.215382685278048
              ],
              [
                -47.907339190555994,
                -23.215377979167037
              ],
              [
                -47.907339987778,
                -23.215373313333057
              ],
              [
                -47.907341135278,
                -23.215368710278046
              ],
              [
                -47.907342627222,
                -23.215364192500047
              ],
              [
                -47.907344456667005,
                -23.215359781944045
              ],
              [
                -47.907346614444,
                -23.215355500000047
              ],
              [
                -47.90734909,
                -23.21535136750004
              ],
              [
                -47.90735187166699,
                -23.215347404722035
              ],
              [
                -47.907354945556,
                -23.215343630833043
              ],
              [
                -47.90735829666699,
                -23.215340064722056
              ],
              [
                -47.907361908889,
                -23.21533672305606
              ],
              [
                -47.907365764443995,
                -23.215333622222047
              ],
              [
                -47.90736984472199,
                -23.21533077777805
              ],
              [
                -47.907374129721994,
                -23.215328203333044
              ],
              [
                -47.907378598611,
                -23.21532591138905
              ],
              [
                -47.90738322944401,
                -23.21532391333304
              ],
              [
                -47.907387999722005,
                -23.21532221833305
              ],
              [
                -47.907392886667,
                -23.215320835278053
              ],
              [
                -47.90739786583299,
                -23.215319770556047
              ],
              [
                -47.907402913333,
                -23.215319029722043
              ],
              [
                -47.90740515083299,
                -23.215318806944047
              ],
              [
                -47.90785650694401,
                -23.21528036555605
              ],
              [
                -47.907861609444,
                -23.215280096667037
              ],
              [
                -47.907866719721994,
                -23.215280157222054
              ],
              [
                -47.907871813056005,
                -23.215280547222058
              ],
              [
                -47.907876864444,
                -23.21528126444404
              ],
              [
                -47.907881849444,
                -23.215282305833036
              ],
              [
                -47.907886743610995,
                -23.21528366583304
              ],
              [
                -47.907891523333,
                -23.21528533833304
              ],
              [
                -47.907896165278,
                -23.21528731472204
              ],
              [
                -47.907900646667,
                -23.21528958583305
              ],
              [
                -47.907904945556,
                -23.21529214000004
              ],
              [
                -47.90790904138899,
                -23.21529496527804
              ],
              [
                -47.907912913889,
                -23.215298047778056
              ],
              [
                -47.907916544444,
                -23.21530137250004
              ],
              [
                -47.907919915278,
                -23.21530492305604
              ],
              [
                -47.907923009722,
                -23.215308682500044
              ],
              [
                -47.90792581305599,
                -23.215312631944048
              ],
              [
                -47.907928311389,
                -23.215316752778048
              ],
              [
                -47.90793049277799,
                -23.215321024722055
              ],
              [
                -47.90793234611099,
                -23.21532542666704
              ],
              [
                -47.907933863056,
                -23.215329937500048
              ],
              [
                -47.907935035833,
                -23.215334535000046
              ],
              [
                -47.90793579777801,
                -23.215338766944054
              ],
              [
                -47.908055623611,
                -23.216165255278035
              ],
              [
                -47.908056125,
                -23.21616995611105
              ],
              [
                -47.908056270556,
                -23.21617467777804
              ],
              [
                -47.908056059444,
                -23.216179397500056
              ],
              [
                -47.908055492778,
                -23.21618409194405
              ],
              [
                -47.908054573056,
                -23.216188738333045
              ],
              [
                -47.908053304722,
                -23.216193314444034
              ],
              [
                -47.908051694167,
                -23.21619779722205
              ],
              [
                -47.908049749444,
                -23.216202165556044
              ],
              [
                -47.908047479444,
                -23.216206397778052
              ],
              [
                -47.908044895832994,
                -23.21621047333305
              ],
              [
                -47.90804201083301,
                -23.216214372500033
              ],
              [
                -47.908038838333,
                -23.216218075833062
              ],
              [
                -47.90803539444399,
                -23.216221565833045
              ],
              [
                -47.90803169527799,
                -23.216224825278047
              ],
              [
                -47.908027759167,
                -23.216227838333044
              ],
              [
                -47.908023605278,
                -23.216230590278045
              ],
              [
                -47.908019253889,
                -23.21623306750005
              ],
              [
                -47.908014726111,
                -23.216235258333054
              ],
              [
                -47.908010043889,
                -23.216237151944043
              ],
              [
                -47.908005230278,
                -23.21623873916705
              ],
              [
                -47.908000308611,
                -23.21624001194405
              ],
              [
                -47.907995302778,
                -23.216240964167046
              ],
              [
                -47.907990237222,
                -23.216241591667046
              ],
              [
                -47.907985136667,
                -23.216241890833047
              ],
              [
                -47.90798002611099,
                -23.21624186055605
              ],
              [
                -47.907974930278,
                -23.216241500833036
              ],
              [
                -47.907969873889,
                -23.21624081333304
              ],
              [
                -47.907964881667006,
                -23.216239801667037
              ],
              [
                -47.90795997805599,
                -23.216238470556043
              ],
              [
                -47.907955186944,
                -23.216236826389054
              ],
              [
                -47.907950531389,
                -23.216234877500046
              ],
              [
                -47.907946034444,
                -23.216232633333043
              ],
              [
                -47.907941717778,
                -23.21623010444406
              ],
              [
                -47.90793760222199,
                -23.216227303333046
              ],
              [
                -47.907933708333,
                -23.21622424388904
              ],
              [
                -47.907931661944,
                -23.216222450833047
              ],
              [
                -47.90791961861099,
                -23.21621222416706
              ],
              [
                -47.90790683277799,
                -23.216202799167046
              ],
              [
                -47.907893366667,
                -23.21619422138904
              ],
              [
                -47.907879286111,
                -23.216186532500053
              ],
              [
                -47.907864659443995,
                -23.216179770556046
              ],
              [
                -47.907849558056,
                -23.21617396777804
              ],
              [
                -47.907834055556,
                -23.216169152778047
              ],
              [
                -47.9078182275,
                -23.216165349167046
              ],
              [
                -47.907816351111,
                -23.216164969722055
              ],
              [
                -47.907617166110995,
                -23.21612548555604
              ],
              [
                -47.907611218333,
                -23.216124104167054
              ],
              [
                -47.907605388889,
                -23.216122342778043
              ],
              [
                -47.907599706944,
                -23.21612020972204
              ],
              [
                -47.907594199722006,
                -23.21611771555605
              ],
              [
                -47.907588893889,
                -23.216114872222047
              ],
              [
                -47.907583815833,
                -23.216111693889047
              ],
              [
                -47.907579513889004,
                -23.216108600556044
              ]
            ]
          ]
        ]
      }
    },
    {
      "type": "Feature",
      "properties": {
        "ANO ENTRADA": 2024,
        "ÁREA TOTAL DA GLEBA/M²": null,
        "DATA DE ENTRADA": "2024/10/23",
        "DATA DO CERTIFICADO": null,
        "LOCALIZAÇÃO/ENDEREÇO": "Rua CLAUDIO BELINI BARONI - DAS POSSES - SERRA NEGRA - SP",
        "MUNICIPIO": "SERRA NEGRA",
        "Nº DE UNIDADES HABITACIONAIS": 17,
        "Nº DO CERTIFICADO": null,
        "NOME DO EMPREENDIMENTO": "TERRA ALTA",
        "PROPRIETARIO": "PROJETARE EMPREENDIMENTOS IMOBILIÁRIOS LTDA",
        "PROTOCOLO": "PROTOCOLO",
        "SITUAÇÃO": null
      },
      "geometry": {
        "type": "MultiPolygon",
        "coordinates": [
          [
            [
              [
                -46.71187708627615,
                -22.623215907998805
              ],
              [
                -46.71172462208632,
                -22.62358626082502
              ],
              [
                -46.71190940816833,
                -22.62362616264516
              ],
              [
                -46.71209445747603,
                -22.623775287201415
              ],
              [
                -46.712227368074444,
                -22.623927206524787
              ],
              [
                -46.71239328779457,
                -22.62421382112422
              ],
              [
                -46.71244278602906,
                -22.624331109708486
              ],
              [
                -46.7125165427317,
                -22.62471692040643
              ],
              [
                -46.71251475741335,
                -22.624914551033715
              ],
              [
                -46.71269399082511,
                -22.625461573894675
              ],
              [
                -46.71344830687861,
                -22.625197644156327
              ],
              [
                -46.71339732163543,
                -22.62509412978841
              ],
              [
                -46.71329875569668,
                -22.624613815945928
              ],
              [
                -46.713171181711,
                -22.62438587592298
              ],
              [
                -46.71277410995563,
                -22.623766312758132
              ],
              [
                -46.71228530238714,
                -22.623099832773203
              ],
              [
                -46.712184295586276,
                -22.623359718995264
              ],
              [
                -46.71187708627615,
                -22.623215907998805
              ]
            ]
          ]
        ]
      }
    },
    {
      "type": "Feature",
      "properties": {
        "ANO ENTRADA": 2025,
        "ÁREA TOTAL DA GLEBA/M²": 53027.96,
        "DATA DE ENTRADA": "2025/02/12",
        "DATA DO CERTIFICADO": "2026-05-12",
        "LOCALIZAÇÃO/ENDEREÇO": "RODOVIA GOVERNADOR MÁRIO COVAS - RODOVIA RIO-SANTOS (BR-101) – QUINHÃO 7-B - BAIRRO ITAGUÁ",
        "MUNICIPIO": "UBATUBA",
        "Nº DE UNIDADES HABITACIONAIS": 6,
        "Nº DO CERTIFICADO": "128",
        "NOME DO EMPREENDIMENTO": "MARIGNY",
        "PROPRIETARIO": "CONSTRUTORA E INCORPORADORA COMODORO LTDA.",
        "PROTOCOLO": "PROTOCOLO",
        "SITUAÇÃO": "CERTIFICADO"
      },
      "geometry": {
        "type": "MultiPolygon",
        "coordinates": [
          [
            [
              [
                -45.07370025218979,
                -23.45435033591678
              ],
              [
                -45.076247408661786,
                -23.455578504325135
              ],
              [
                -45.07565169932347,
                -23.45691388932589
              ],
              [
                -45.07259845385255,
                -23.455488163722894
              ],
              [
                -45.07370025218979,
                -23.45435033591678
              ]
            ]
          ]
        ]
      }
    },
    {
      "type": "Feature",
      "properties": {
        "ANO ENTRADA": 2025,
        "ÁREA TOTAL DA GLEBA/M²": null,
        "DATA DE ENTRADA": "2025/08/07",
        "DATA DO CERTIFICADO": null,
        "LOCALIZAÇÃO/ENDEREÇO": "Rodovia Carlos Mauro - SP 191 - CHARQUEADA - SP",
        "MUNICIPIO": "CHARQUEADA",
        "Nº DE UNIDADES HABITACIONAIS": 13,
        "Nº DO CERTIFICADO": null,
        "NOME DO EMPREENDIMENTO": "Sem Denominação",
        "PROPRIETARIO": "Jorge Benedito Verde Favarin",
        "PROTOCOLO": "PROTOCOLO",
        "SITUAÇÃO": null
      },
      "geometry": {
        "type": "MultiPolygon",
        "coordinates": [
          [
            [
              [
                -47.767059374947365,
                -22.52353326763993
              ],
              [
                -47.76732697394501,
                -22.52361102077329
              ],
              [
                -47.76754028947045,
                -22.523791342344175
              ],
              [
                -47.76768991714034,
                -22.524011998941276
              ],
              [
                -47.76786410974082,
                -22.52432073864712
              ],
              [
                -47.76809095005296,
                -22.524695341977363
              ],
              [
                -47.76584259230818,
                -22.524955148005418
              ],
              [
                -47.76585800247431,
                -22.52484786440058
              ],
              [
                -47.76603445231003,
                -22.524452320953735
              ],
              [
                -47.76622747792266,
                -22.52411494629904
              ],
              [
                -47.76641754775849,
                -22.523825920862773
              ],
              [
                -47.76661265631352,
                -22.52364654562493
              ],
              [
                -47.766820892252014,
                -22.523524915219348
              ],
              [
                -47.767059374947365,
                -22.52353326763993
              ]
            ]
          ]
        ]
      }
    },
    {
      "type": "Feature",
      "properties": {
        "ANO ENTRADA": 2025,
        "ÁREA TOTAL DA GLEBA/M²": 7056,
        "DATA DE ENTRADA": "2025/08/15",
        "DATA DO CERTIFICADO": "2026-06-30",
        "LOCALIZAÇÃO/ENDEREÇO": "RUA TEÓFILO FRANCISCO MACHADO, LOTE 02 – CENTRO",
        "MUNICIPIO": "PRACINHA",
        "Nº DE UNIDADES HABITACIONAIS": 27,
        "Nº DO CERTIFICADO": "172",
        "NOME DO EMPREENDIMENTO": "FUTURO LAR",
        "PROPRIETARIO": "ORGANIZAÇÃO NÃO GOVERNAMENTAL – ONG FUTURO",
        "PROTOCOLO": "PROTOCOLO",
        "SITUAÇÃO": "CERTIFICADO"
      },
      "geometry": {
        "type": "MultiPolygon",
        "coordinates": [
          [
            [
              [
                -51.0923549115493,
                -21.855640369189754
              ],
              [
                -51.09127529774749,
                -21.85213930845707
              ],
              [
                -51.090272184777824,
                -21.85233703397311
              ],
              [
                -51.09130449060367,
                -21.855915404001525
              ],
              [
                -51.0923549115493,
                -21.855640369189754
              ]
            ]
          ]
        ]
      }
    },
    {
      "type": "Feature",
      "properties": {
        "ANO ENTRADA": 2025,
        "ÁREA TOTAL DA GLEBA/M²": null,
        "DATA DE ENTRADA": "2025/08/15",
        "DATA DO CERTIFICADO": null,
        "LOCALIZAÇÃO/ENDEREÇO": "ESTRADA Acrishio Ceschi - UBATUBA - SP",
        "MUNICIPIO": "UBATUBA",
        "Nº DE UNIDADES HABITACIONAIS": 14,
        "Nº DO CERTIFICADO": null,
        "NOME DO EMPREENDIMENTO": " Parque Residencial Jatobá.",
        "PROPRIETARIO": " JATOBA INCORPORACAO SPE LTDA.",
        "PROTOCOLO": "PROTOCOLO",
        "SITUAÇÃO": null
      },
      "geometry": {
        "type": "MultiPolygon",
        "coordinates": [
          [
            [
              [
                -45.09206593928207,
                -23.44143355527157
              ],
              [
                -45.09259414629419,
                -23.442873021663775
              ],
              [
                -45.09031869738412,
                -23.442939303830755
              ],
              [
                -45.09052200519106,
                -23.4414865769481
              ],
              [
                -45.09206593928207,
                -23.44143355527157
              ]
            ]
          ]
        ]
      }
    },
    {
      "type": "Feature",
      "properties": {
        "ANO ENTRADA": 2024,
        "ÁREA TOTAL DA GLEBA/M²": null,
        "DATA DE ENTRADA": "2024/06/07",
        "DATA DO CERTIFICADO": null,
        "LOCALIZAÇÃO/ENDEREÇO": "AV AULO GUILGUER REIMBERG - SAO PAULO - SP",
        "MUNICIPIO": "SAO PAULO",
        "Nº DE UNIDADES HABITACIONAIS": 4,
        "Nº DO CERTIFICADO": null,
        "NOME DO EMPREENDIMENTO": "Grajaú GR1",
        "PROPRIETARIO": "GR1 EMPREENDIMENTO IMOBILIARIO SPE LTDA",
        "PROTOCOLO": "PROTOCOLO",
        "SITUAÇÃO": null
      },
      "geometry": {
        "type": "MultiPolygon",
        "coordinates": [
          [
            [
              [
                -46.7009363659591,
                -23.772515600201352
              ],
              [
                -46.70288649998547,
                -23.773024936941198
              ],
              [
                -46.702971149861504,
                -23.772901457597534
              ],
              [
                -46.70274086740525,
                -23.771922773793378
              ],
              [
                -46.70220434607413,
                -23.771392245981936
              ],
              [
                -46.70190826977994,
                -23.771324102127007
              ],
              [
                -46.70181165337574,
                -23.7711623142687
              ],
              [
                -46.70086655260604,
                -23.770612718238247
              ],
              [
                -46.70068837638766,
                -23.7705134752321
              ],
              [
                -46.7004922972847,
                -23.77035079935537
              ],
              [
                -46.69989578483673,
                -23.770609472484406
              ],
              [
                -46.700519931887996,
                -23.772402971828992
              ],
              [
                -46.70069915655551,
                -23.772514366035672
              ],
              [
                -46.7009363659591,
                -23.772515600201352
              ]
            ]
          ]
        ]
      }
    },
    {
      "type": "Feature",
      "properties": {
        "ANO ENTRADA": 2024,
        "ÁREA TOTAL DA GLEBA/M²": null,
        "DATA DE ENTRADA": "2024/06/12",
        "DATA DO CERTIFICADO": null,
        "LOCALIZAÇÃO/ENDEREÇO": "RUA  Angelo Marchi, - s/n° - SERRA NEGRA - SP",
        "MUNICIPIO": "SERRA NEGRA",
        "Nº DE UNIDADES HABITACIONAIS": 51,
        "Nº DO CERTIFICADO": null,
        "NOME DO EMPREENDIMENTO": "VALE VERDE",
        "PROPRIETARIO": "PEDRO LUIZ PERONDINI",
        "PROTOCOLO": "PROTOCOLO",
        "SITUAÇÃO": "CANCELADO"
      },
      "geometry": {
        "type": "MultiPolygon",
        "coordinates": [
          [
            [
              [
                -46.68670980952914,
                -22.61069216149561
              ],
              [
                -46.68672897936456,
                -22.61040767357962
              ],
              [
                -46.68690634358167,
                -22.610145306617596
              ],
              [
                -46.687368887909656,
                -22.609871155465726
              ],
              [
                -46.68787452904348,
                -22.609642535408728
              ],
              [
                -46.68831237270586,
                -22.609508773883427
              ],
              [
                -46.688691612991256,
                -22.609327695088034
              ],
              [
                -46.68897881187727,
                -22.609127130303953
              ],
              [
                -46.68917094878046,
                -22.60894883496481
              ],
              [
                -46.68922518196431,
                -22.608933835037124
              ],
              [
                -46.68928100905453,
                -22.608978429569976
              ],
              [
                -46.68936224407616,
                -22.60923219995611
              ],
              [
                -46.689435857899845,
                -22.609490646466867
              ],
              [
                -46.68942979627433,
                -22.609741202307912
              ],
              [
                -46.68947615480848,
                -22.609942786507382
              ],
              [
                -46.68954024817344,
                -22.610145816836233
              ],
              [
                -46.689632385140555,
                -22.610323829270676
              ],
              [
                -46.68970579250324,
                -22.610583355177404
              ],
              [
                -46.6896388155455,
                -22.610653570539764
              ],
              [
                -46.689055730543046,
                -22.610461153986705
              ],
              [
                -46.68832663759163,
                -22.610218251000212
              ],
              [
                -46.68802245227925,
                -22.61014042370887
              ],
              [
                -46.68755065857394,
                -22.610345735198944
              ],
              [
                -46.68723562719559,
                -22.61052275921807
              ],
              [
                -46.68702094133067,
                -22.610643643523108
              ],
              [
                -46.68670980952914,
                -22.61069216149561
              ]
            ]
          ]
        ]
      }
    },
    {
      "type": "Feature",
      "properties": {
        "ANO ENTRADA": 2024,
        "ÁREA TOTAL DA GLEBA/M²": null,
        "DATA DE ENTRADA": "2024/10/15",
        "DATA DO CERTIFICADO": null,
        "LOCALIZAÇÃO/ENDEREÇO": "RUA José Manoel de Almeida - VARGEM GRANDE PAULISTA - SP",
        "MUNICIPIO": "VARGEM GRANDE PAULISTA",
        "Nº DE UNIDADES HABITACIONAIS": 1,
        "Nº DO CERTIFICADO": null,
        "NOME DO EMPREENDIMENTO": "VILLA RICA II",
        "PROPRIETARIO": "CARLOS TADÃO TAKADATI",
        "PROTOCOLO": "PROTOCOLO",
        "SITUAÇÃO": "CANCELADO"
      },
      "geometry": {
        "type": "MultiPolygon",
        "coordinates": [
          [
            [
              [
                -47.009616772930485,
                -23.625602521590007
              ],
              [
                -47.009743356610066,
                -23.62756763338358
              ],
              [
                -47.00901279601665,
                -23.62843143414131
              ],
              [
                -47.00910497324162,
                -23.630041018744766
              ],
              [
                -47.007541423178054,
                -23.630755414749302
              ],
              [
                -47.00691564934213,
                -23.629624399148707
              ],
              [
                -47.006823037554206,
                -23.629251825388998
              ],
              [
                -47.00692644545469,
                -23.628431748148554
              ],
              [
                -47.00707935868078,
                -23.62769112424614
              ],
              [
                -47.00719852552842,
                -23.62727131315575
              ],
              [
                -47.00736651949882,
                -23.626886467414
              ],
              [
                -47.00747467129959,
                -23.626377805337313
              ],
              [
                -47.009616772930485,
                -23.625602521590007
              ]
            ]
          ]
        ]
      }
    },
    {
      "type": "Feature",
      "properties": {
        "ANO ENTRADA": 2025,
        "ÁREA TOTAL DA GLEBA/M²": null,
        "DATA DE ENTRADA": "2025/09/19",
        "DATA DO CERTIFICADO": null,
        "LOCALIZAÇÃO/ENDEREÇO": "Avenida HENRY NESTLE - PARQUE DOS LAGOS - RIBEIRAO PRETO - SP",
        "MUNICIPIO": "RIBEIRAO PRETO",
        "Nº DE UNIDADES HABITACIONAIS": 1,
        "Nº DO CERTIFICADO": null,
        "NOME DO EMPREENDIMENTO": "RESIDENCIAL LIFE TROPICAL",
        "PROPRIETARIO": "REALIZA EMPREENDIMENTO RIBEIRÃO PRETO II SPE LTDA",
        "PROTOCOLO": "PROTOCOLO",
        "SITUAÇÃO": null
      },
      "geometry": {
        "type": "MultiPolygon",
        "coordinates": [
          [
            [
              [
                -47.74032435533336,
                -21.193932025555313
              ],
              [
                -47.73997477552678,
                -21.194493122332194
              ],
              [
                -47.73944020062824,
                -21.19536979090613
              ],
              [
                -47.73917696135142,
                -21.195191148047122
              ],
              [
                -47.73874979554163,
                -21.19535780642835
              ],
              [
                -47.73813299366017,
                -21.19545511975176
              ],
              [
                -47.737705214521014,
                -21.19552029851601
              ],
              [
                -47.73791687726779,
                -21.194614042391457
              ],
              [
                -47.73900254401237,
                -21.193760207823047
              ],
              [
                -47.73900332090495,
                -21.19377072756382
              ],
              [
                -47.7401731041905,
                -21.193723279713552
              ],
              [
                -47.74017929441925,
                -21.1937287484161
              ],
              [
                -47.74032435533336,
                -21.193932025555313
              ]
            ]
          ]
        ]
      }
    },
    {
      "type": "Feature",
      "properties": {
        "ANO ENTRADA": 2025,
        "ÁREA TOTAL DA GLEBA/M²": null,
        "DATA DE ENTRADA": "2025/10/29",
        "DATA DO CERTIFICADO": null,
        "LOCALIZAÇÃO/ENDEREÇO": "Rua Yolanda Locatelli da Cunha - s/nº - Bela Vista - PANORAMA - SP",
        "MUNICIPIO": "PANORAMA",
        "Nº DE UNIDADES HABITACIONAIS": 22,
        "Nº DO CERTIFICADO": null,
        "NOME DO EMPREENDIMENTO": "FAZENDA BELA VISTA GLEBA A-5",
        "PROPRIETARIO": "DYONISIO EMPREENDIMENTOS IMOBILIARIOS LTDA",
        "PROTOCOLO": "PROTOCOLO",
        "SITUAÇÃO": null
      },
      "geometry": {
        "type": "MultiPolygon",
        "coordinates": [
          [
            [
              [
                -51.89091825138901,
                -21.403141090832992
              ],
              [
                -51.890953705,
                -21.403107628610993
              ],
              [
                -51.890990875,
                -21.403075666110997
              ],
              [
                -51.89102924833298,
                -21.403044862499996
              ],
              [
                -51.89106889666703,
                -21.403015895277992
              ],
              [
                -51.891109526111,
                -21.40298806111099
              ],
              [
                -51.89115204472199,
                -21.402961526944008
              ],
              [
                -51.89119423750001,
                -21.402936963889015
              ],
              [
                -51.89123894583301,
                -21.402913589166978
              ],
              [
                -51.891283193889,
                -21.402892249443987
              ],
              [
                -51.891328936667016,
                -21.402872455833
              ],
              [
                -51.89137537416701,
                -21.402854221388992
              ],
              [
                -51.89142263111101,
                -21.40283752749999
              ],
              [
                -51.891470527222,
                -21.40282279972199
              ],
              [
                -51.89151878138902,
                -21.402809840833022
              ],
              [
                -51.89156803972202,
                -21.402798638055984
              ],
              [
                -51.89161743222201,
                -21.40278888916699
              ],
              [
                -51.89166691472201,
                -21.402781244999986
              ],
              [
                -51.891716908611,
                -21.402775214999984
              ],
              [
                -51.89176739722199,
                -21.402771224443992
              ],
              [
                -51.891817761944004,
                -21.402769023056006
              ],
              [
                -51.89186592749999,
                -21.402768542778
              ],
              [
                -51.89576191944401,
                -21.402805974166995
              ],
              [
                -51.89577558444401,
                -21.402807187778
              ],
              [
                -51.89578840388902,
                -21.402810064444
              ],
              [
                -51.895800761667,
                -21.402814768610995
              ],
              [
                -51.89581237111098,
                -21.402821708333004
              ],
              [
                -51.895822366667005,
                -21.402829794722024
              ],
              [
                -51.89583153333299,
                -21.402839620555987
              ],
              [
                -51.895838409721996,
                -21.402850343610982
              ],
              [
                -51.895843595278,
                -21.40286224138898
              ],
              [
                -51.89584703749999,
                -21.40287461805598
              ],
              [
                -51.89584792472201,
                -21.402887243610973
              ],
              [
                -51.89584699388899,
                -21.40349283361101
              ],
              [
                -51.895845787499994,
                -21.40350540694399
              ],
              [
                -51.895842555833,
                -21.40351813555601
              ],
              [
                -51.895837175833,
                -21.40352972833301
              ],
              [
                -51.89582996055601,
                -21.403540924444005
              ],
              [
                -51.89582112361099,
                -21.40355043944399
              ],
              [
                -51.89581075527799,
                -21.403558743333004
              ],
              [
                -51.895798968333004,
                -21.40356542861099
              ],
              [
                -51.89578588749998,
                -21.40357032277799
              ],
              [
                -51.89577267749999,
                -21.403573004444016
              ],
              [
                -51.895759272222,
                -21.403573753610996
              ],
              [
                -51.89078619833298,
                -21.403526134444
              ],
              [
                -51.89077095694401,
                -21.40352476999998
              ],
              [
                -51.89075663750001,
                -21.403521096666974
              ],
              [
                -51.890743171944,
                -21.403515061110983
              ],
              [
                -51.890730869722,
                -21.403506814721993
              ],
              [
                -51.89072054583301,
                -21.403497031110984
              ],
              [
                -51.890711784444,
                -21.403485603889013
              ],
              [
                -51.89070543694401,
                -21.403472926111004
              ],
              [
                -51.89070138,
                -21.40345936
              ],
              [
                -51.890699897222,
                -21.403445527222
              ],
              [
                -51.89070111472199,
                -21.4034315175
              ],
              [
                -51.89070507444399,
                -21.403417863333
              ],
              [
                -51.890710723056,
                -21.403405944166984
              ],
              [
                -51.8907352425,
                -21.403365529443978
              ],
              [
                -51.890761684443994,
                -21.40332552
              ],
              [
                -51.89078963722199,
                -21.40328646944399
              ],
              [
                -51.890819572778,
                -21.403248284444015
              ],
              [
                -51.890850769167,
                -21.403211186111005
              ],
              [
                -51.890883835,
                -21.403175342499992
              ],
              [
                -51.89091825138901,
                -21.403141090832992
              ]
            ]
          ]
        ]
      }
    },
    {
      "type": "Feature",
      "properties": {
        "ANO ENTRADA": 2025,
        "ÁREA TOTAL DA GLEBA/M²": null,
        "DATA DE ENTRADA": "2025/11/17",
        "DATA DO CERTIFICADO": null,
        "LOCALIZAÇÃO/ENDEREÇO": "Rua do Plebiscito esquina  com a Rua OIindo João Moretto - ITAJU - SP",
        "MUNICIPIO": "ITAJU",
        "Nº DE UNIDADES HABITACIONAIS": 14,
        "Nº DO CERTIFICADO": null,
        "NOME DO EMPREENDIMENTO": "SEM DENOMINAÇÃO",
        "PROPRIETARIO": "MARCIO ELI VIDEIRA",
        "PROTOCOLO": "PROTOCOLO",
        "SITUAÇÃO": null
      },
      "geometry": {
        "type": "MultiPolygon",
        "coordinates": [
          [
            [
              [
                -48.80632863416667,
                -21.97777945388888
              ],
              [
                -48.806327558055564,
                -21.97891717444444
              ],
              [
                -48.80595258666666,
                -21.978960274722223
              ],
              [
                -48.80602653944444,
                -21.97778760388888
              ],
              [
                -48.80632863416667,
                -21.97777945388888
              ]
            ]
          ]
        ]
      }
    },
    {
      "type": "Feature",
      "properties": {
        "ANO ENTRADA": null,
        "ÁREA TOTAL DA GLEBA/M²": null,
        "DATA DE ENTRADA": null,
        "DATA DO CERTIFICADO": null,
        "LOCALIZAÇÃO/ENDEREÇO": null,
        "MUNICIPIO": null,
        "Nº DE UNIDADES HABITACIONAIS": null,
        "Nº DO CERTIFICADO": null,
        "NOME DO EMPREENDIMENTO": null,
        "PROPRIETARIO": null,
        "PROTOCOLO": null,
        "SITUAÇÃO": null
      },
      "geometry": {
        "type": "MultiPolygon",
        "coordinates": [
          [
            [
              [
                -49.5306748722222,
                -21.40600602444441
              ],
              [
                -49.53050770188556,
                -21.405830669378492
              ],
              [
                -49.52806691410896,
                -21.40753427381626
              ],
              [
                -49.52821234583331,
                -21.4076869211111
              ],
              [
                -49.5306748722222,
                -21.40600602444441
              ]
            ]
          ]
        ]
      }
    },
    {
      "type": "Feature",
      "properties": {
        "ANO ENTRADA": 2026,
        "ÁREA TOTAL DA GLEBA/M²": null,
        "DATA DE ENTRADA": "27/03/2026",
        "DATA DO CERTIFICADO": null,
        "LOCALIZAÇÃO/ENDEREÇO": " Avenida  Salim Farah Maluf - 180 - SAO PAULO - SP",
        "MUNICIPIO": "SAO PAULO",
        "Nº DE UNIDADES HABITACIONAIS": 8,
        "Nº DO CERTIFICADO": null,
        "NOME DO EMPREENDIMENTO": "Vivaz Desmembramento Salim Farah Maluf",
        "PROPRIETARIO": "CBR 189 EMPREENDIMENTOS IMOBILIARIOS LTDA",
        "PROTOCOLO": "PROTOCOLO",
        "SITUAÇÃO": null
      },
      "geometry": {
        "type": "MultiPolygon",
        "coordinates": [
          [
            [
              [
                -46.58603050069283,
                -23.529870460898742
              ],
              [
                -46.58614783639682,
                -23.531032086905636
              ],
              [
                -46.58598360588499,
                -23.531455151966625
              ],
              [
                -46.58445852707214,
                -23.531663113880224
              ],
              [
                -46.58405965884143,
                -23.531598581271332
              ],
              [
                -46.584200433419596,
                -23.530974742687082
              ],
              [
                -46.58477135367666,
                -23.530515824973296
              ],
              [
                -46.58603050069283,
                -23.529870460898742
              ]
            ]
          ]
        ]
      }
    },
    {
      "type": "Feature",
      "properties": {
        "ANO ENTRADA": 2026,
        "ÁREA TOTAL DA GLEBA/M²": null,
        "DATA DE ENTRADA": "27/07/2026",
        "DATA DO CERTIFICADO": null,
        "LOCALIZAÇÃO/ENDEREÇO": "Rua Guajaras - lote 3 -  Jaçanã - SAO PAULO - SP",
        "MUNICIPIO": "SAO PAULO",
        "Nº DE UNIDADES HABITACIONAIS": 2,
        "Nº DO CERTIFICADO": null,
        "NOME DO EMPREENDIMENTO": "Lotes 3A e 3B",
        "PROPRIETARIO": "E.D.I. RIO BURITI EMPREENDIMENTOS IMOBILIÁRIOS SPE LTDA.",
        "PROTOCOLO": "PROTOCOLO",
        "SITUAÇÃO": null
      },
      "geometry": {
        "type": "MultiPolygon",
        "coordinates": [
          [
            [
              [
                -46.57851271753368,
                -23.465109185294377
              ],
              [
                -46.5781719877688,
                -23.46517640130649
              ],
              [
                -46.578407886579654,
                -23.466177227333965
              ],
              [
                -46.57938024863384,
                -23.46597550967064
              ],
              [
                -46.57927918484884,
                -23.46555677077768
              ],
              [
                -46.57851271753368,
                -23.465109185294377
              ]
            ]
          ]
        ]
      }
    }
  ]
}