{
  "type": "FeatureCollection",
  "name": "Loteamentos e Conj. Habitacionais",
  "crs": {
    "type": "name",
    "properties": {
      "name": "urn:ogc:def:crs:OGC:1.3:CRS84"
    }
  },
  "features": [
    {
      "type": "Feature",
      "properties": {
        "PROTOCOLO": "042/2024",
        "ANO ENTRADA": 2024,
        "MUNICIPIO": "CAMPINAS",
        "NOME DO EMPREENDIMENTO": "Residencial Alphaville Campinas Norte",
        "PROPRIETARIO": "Alphaville Urbanismo S.A.",
        "LOCALIZAÇÃO/ENDEREÇO": "RMC - Região Metropolitana de Campinas",
        "ÁREA TOTAL DA GLEBA/M²": "540000",
        "Nº DE UNIDADES HABITACIONAIS": 620,
        "DATA DE ENTRADA": "2024-02-15",
        "DATA DO CERTIFICADO": "2024-06-20",
        "Nº DO CERTIFICADO": "CERT-GRAPROHAB-184/2024",
        "SITUAÇÃO": "CERTIFICADO",
        "TIPO DE EMPREENDIMENTO": "Loteamento Fechado / Acesso Controlado",
        "processo_graprohab": "042/2024",
        "nome_empreendimento": "Residencial Alphaville Campinas Norte",
        "municipio": "Campinas",
        "status_graprohab": "Aprovado com Certificado",
        "quantidade_lotes_uh": 620,
        "area_total_m2": 540000
      },
      "geometry": {
        "type": "Polygon",
        "coordinates": [
          [
            [
              -47.052,
              -22.845
            ],
            [
              -47.038,
              -22.842
            ],
            [
              -47.035,
              -22.854
            ],
            [
              -47.048,
              -22.858
            ],
            [
              -47.052,
              -22.845
            ]
          ]
        ]
      }
    },
    {
      "type": "Feature",
      "properties": {
        "PROTOCOLO": "118/2023",
        "ANO ENTRADA": 2024,
        "MUNICIPIO": "CAMPINAS",
        "NOME DO EMPREENDIMENTO": "Conjunto Habitacional Parque das Flores (CDHU)",
        "PROPRIETARIO": "CDHU - Cia Desenvolvimento Habitacional Urbano SP",
        "LOCALIZAÇÃO/ENDEREÇO": "RMC - Região Metropolitana de Campinas",
        "ÁREA TOTAL DA GLEBA/M²": "285000",
        "Nº DE UNIDADES HABITACIONAIS": 850,
        "DATA DE ENTRADA": "2023-05-10",
        "DATA DO CERTIFICADO": "2023-09-14",
        "Nº DO CERTIFICADO": "CERT-GRAPROHAB-412/2023",
        "SITUAÇÃO": "CERTIFICADO",
        "TIPO DE EMPREENDIMENTO": "Conjunto Habitacional HIS",
        "processo_graprohab": "118/2023",
        "nome_empreendimento": "Conjunto Habitacional Parque das Flores (CDHU)",
        "municipio": "Campinas",
        "status_graprohab": "Aprovado com Certificado",
        "quantidade_lotes_uh": 850,
        "area_total_m2": 285000
      },
      "geometry": {
        "type": "Polygon",
        "coordinates": [
          [
            [
              -47.125,
              -22.92
            ],
            [
              -47.112,
              -22.918
            ],
            [
              -47.11,
              -22.931
            ],
            [
              -47.123,
              -22.933
            ],
            [
              -47.125,
              -22.92
            ]
          ]
        ]
      }
    },
    {
      "type": "Feature",
      "properties": {
        "PROTOCOLO": "089/2024",
        "ANO ENTRADA": 2024,
        "MUNICIPIO": "SOROCABA",
        "NOME DO EMPREENDIMENTO": "Loteamento Reserva Ipanema",
        "PROPRIETARIO": "Setpar Empreendimentos Imobiliários",
        "LOCALIZAÇÃO/ENDEREÇO": "RMS - Região Metropolitana de Sorocaba",
        "ÁREA TOTAL DA GLEBA/M²": "420000",
        "Nº DE UNIDADES HABITACIONAIS": 740,
        "DATA DE ENTRADA": "2024-01-20",
        "DATA DO CERTIFICADO": "2024-05-18",
        "Nº DO CERTIFICADO": "CERT-GRAPROHAB-229/2024",
        "SITUAÇÃO": "CERTIFICADO",
        "TIPO DE EMPREENDIMENTO": "Loteamento Aberto",
        "processo_graprohab": "089/2024",
        "nome_empreendimento": "Loteamento Reserva Ipanema",
        "municipio": "Sorocaba",
        "status_graprohab": "Aprovado com Certificado",
        "quantidade_lotes_uh": 740,
        "area_total_m2": 420000
      },
      "geometry": {
        "type": "Polygon",
        "coordinates": [
          [
            [
              -47.495,
              -23.46
            ],
            [
              -47.478,
              -23.455
            ],
            [
              -47.472,
              -23.468
            ],
            [
              -47.49,
              -23.473
            ],
            [
              -47.495,
              -23.46
            ]
          ]
        ]
      }
    },
    {
      "type": "Feature",
      "properties": {
        "PROTOCOLO": "205/2024",
        "ANO ENTRADA": 2024,
        "MUNICIPIO": "SOROCABA",
        "NOME DO EMPREENDIMENTO": "Condomínio Residencial Villa Flora Sorocaba",
        "PROPRIETARIO": "Rossi Residencial / Congesa",
        "LOCALIZAÇÃO/ENDEREÇO": "RMS - Região Metropolitana de Sorocaba",
        "ÁREA TOTAL DA GLEBA/M²": "310000",
        "Nº DE UNIDADES HABITACIONAIS": 490,
        "DATA DE ENTRADA": "2024-07-02",
        "DATA DO CERTIFICADO": "2024-09-30 (Previsão)",
        "Nº DO CERTIFICADO": "Pendente",
        "SITUAÇÃO": "EM ANÁLISE",
        "TIPO DE EMPREENDIMENTO": "Condomínio Urbanístico",
        "processo_graprohab": "205/2024",
        "nome_empreendimento": "Condomínio Residencial Villa Flora Sorocaba",
        "municipio": "Sorocaba",
        "status_graprohab": "Em Análise Técnica",
        "quantidade_lotes_uh": 490,
        "area_total_m2": 310000
      },
      "geometry": {
        "type": "Polygon",
        "coordinates": [
          [
            [
              -47.442,
              -23.51
            ],
            [
              -47.428,
              -23.505
            ],
            [
              -47.425,
              -23.518
            ],
            [
              -47.439,
              -23.522
            ],
            [
              -47.442,
              -23.51
            ]
          ]
        ]
      }
    },
    {
      "type": "Feature",
      "properties": {
        "PROTOCOLO": "015/2024",
        "ANO ENTRADA": 2024,
        "MUNICIPIO": "SÃO JOSÉ DO RIO PRETO",
        "NOME DO EMPREENDIMENTO": "Residencial Quinta do Golfe Jardins",
        "PROPRIETARIO": "Encalso Damha Empreendimentos",
        "LOCALIZAÇÃO/ENDEREÇO": "RA de São José do Rio Preto",
        "ÁREA TOTAL DA GLEBA/M²": "480000",
        "Nº DE UNIDADES HABITACIONAIS": 520,
        "DATA DE ENTRADA": "2024-01-12",
        "DATA DO CERTIFICADO": "2024-04-25",
        "Nº DO CERTIFICADO": "CERT-GRAPROHAB-098/2024",
        "SITUAÇÃO": "CERTIFICADO",
        "TIPO DE EMPREENDIMENTO": "Loteamento Fechado / Acesso Controlado",
        "processo_graprohab": "015/2024",
        "nome_empreendimento": "Residencial Quinta do Golfe Jardins",
        "municipio": "São José do Rio Preto",
        "status_graprohab": "Aprovado com Certificado",
        "quantidade_lotes_uh": 520,
        "area_total_m2": 480000
      },
      "geometry": {
        "type": "Polygon",
        "coordinates": [
          [
            [
              -49.39,
              -20.835
            ],
            [
              -49.375,
              -20.83
            ],
            [
              -49.37,
              -20.844
            ],
            [
              -49.386,
              -20.849
            ],
            [
              -49.39,
              -20.835
            ]
          ]
        ]
      }
    },
    {
      "type": "Feature",
      "properties": {
        "PROTOCOLO": "163/2024",
        "ANO ENTRADA": 2024,
        "MUNICIPIO": "RIBEIRÃO PRETO",
        "NOME DO EMPREENDIMENTO": "Loteamento Jardim Olhos D’Água II",
        "PROPRIETARIO": "Habitax Desenvolvimento Imobiliário",
        "LOCALIZAÇÃO/ENDEREÇO": "RMRP - Região Metropolitana de Ribeirão Preto",
        "ÁREA TOTAL DA GLEBA/M²": "610000",
        "Nº DE UNIDADES HABITACIONAIS": 920,
        "DATA DE ENTRADA": "2024-03-18",
        "DATA DO CERTIFICADO": "2024-07-11",
        "Nº DO CERTIFICADO": "CERT-GRAPROHAB-312/2024",
        "SITUAÇÃO": "CERTIFICADO",
        "TIPO DE EMPREENDIMENTO": "Loteamento Aberto",
        "processo_graprohab": "163/2024",
        "nome_empreendimento": "Loteamento Jardim Olhos D’Água II",
        "municipio": "Ribeirão Preto",
        "status_graprohab": "Aprovado com Certificado",
        "quantidade_lotes_uh": 920,
        "area_total_m2": 610000
      },
      "geometry": {
        "type": "Polygon",
        "coordinates": [
          [
            [
              -47.82,
              -21.22
            ],
            [
              -47.802,
              -21.215
            ],
            [
              -47.798,
              -21.232
            ],
            [
              -47.816,
              -21.236
            ],
            [
              -47.82,
              -21.22
            ]
          ]
        ]
      }
    },
    {
      "type": "Feature",
      "properties": {
        "PROTOCOLO": "304/2024",
        "ANO ENTRADA": 2024,
        "MUNICIPIO": "SÃO JOSÉ DOS CAMPOS",
        "NOME DO EMPREENDIMENTO": "Residencial Reserva do Vale Urbanova",
        "PROPRIETARIO": "Urbanova Participações e Empreendimentos",
        "LOCALIZAÇÃO/ENDEREÇO": "RMVale - Região Metropolitana do Vale do Paraíba",
        "ÁREA TOTAL DA GLEBA/M²": "350000",
        "Nº DE UNIDADES HABITACIONAIS": 380,
        "DATA DE ENTRADA": "2024-05-08",
        "DATA DO CERTIFICADO": "2024-08-01",
        "Nº DO CERTIFICADO": "Aguardando Reanálise",
        "SITUAÇÃO": "COM EXIGÊNCIAS",
        "TIPO DE EMPREENDIMENTO": "Condomínio Urbanístico",
        "processo_graprohab": "304/2024",
        "nome_empreendimento": "Residencial Reserva do Vale Urbanova",
        "municipio": "São José dos Campos",
        "status_graprohab": "Com Exigências Técnicas",
        "quantidade_lotes_uh": 380,
        "area_total_m2": 350000
      },
      "geometry": {
        "type": "Polygon",
        "coordinates": [
          [
            [
              -45.945,
              -23.21
            ],
            [
              -45.93,
              -23.205
            ],
            [
              -45.926,
              -23.22
            ],
            [
              -45.941,
              -23.224
            ],
            [
              -45.945,
              -23.21
            ]
          ]
        ]
      }
    },
    {
      "type": "Feature",
      "properties": {
        "PROTOCOLO": "071/2024",
        "ANO ENTRADA": 2024,
        "MUNICIPIO": "BAURU",
        "NOME DO EMPREENDIMENTO": "Loteamento Residencial Alphaville Bauru",
        "PROPRIETARIO": "Alphaville Urbanismo / Zopone Engenharia",
        "LOCALIZAÇÃO/ENDEREÇO": "RA de Bauru",
        "ÁREA TOTAL DA GLEBA/M²": "490000",
        "Nº DE UNIDADES HABITACIONAIS": 560,
        "DATA DE ENTRADA": "2024-02-04",
        "DATA DO CERTIFICADO": "2024-06-05",
        "Nº DO CERTIFICADO": "CERT-GRAPROHAB-155/2024 (CANCELADO)",
        "SITUAÇÃO": "COM EXIGÊNCIAS",
        "TIPO DE EMPREENDIMENTO": "Loteamento Fechado / Acesso Controlado",
        "processo_graprohab": "071/2024",
        "nome_empreendimento": "Loteamento Residencial Alphaville Bauru",
        "municipio": "Bauru",
        "status_graprohab": "CERTIFICADO/CANCELADO",
        "quantidade_lotes_uh": 560,
        "area_total_m2": 490000
      },
      "geometry": {
        "type": "Polygon",
        "coordinates": [
          [
            [
              -49.075,
              -22.34
            ],
            [
              -49.06,
              -22.335
            ],
            [
              -49.055,
              -22.35
            ],
            [
              -49.07,
              -22.355
            ],
            [
              -49.075,
              -22.34
            ]
          ]
        ]
      }
    },
    {
      "type": "Feature",
      "properties": {
        "PROTOCOLO": "211/2024",
        "ANO ENTRADA": 2024,
        "MUNICIPIO": "PIRACICABA",
        "NOME DO EMPREENDIMENTO": "Residencial Terras de Piracicaba V",
        "PROPRIETARIO": "Sugoi Empreendimentos / Rossi",
        "LOCALIZAÇÃO/ENDEREÇO": "RMP - Região Metropolitana de Piracicaba",
        "ÁREA TOTAL DA GLEBA/M²": "380000",
        "Nº DE UNIDADES HABITACIONAIS": 430,
        "DATA DE ENTRADA": "2024-03-22",
        "DATA DO CERTIFICADO": "2024-07-25",
        "Nº DO CERTIFICADO": "CERT-GRAPROHAB-277/2024",
        "SITUAÇÃO": "CERTIFICADO",
        "TIPO DE EMPREENDIMENTO": "Loteamento Fechado / Acesso Controlado",
        "processo_graprohab": "211/2024",
        "nome_empreendimento": "Residencial Terras de Piracicaba V",
        "municipio": "Piracicaba",
        "status_graprohab": "Aprovado com Certificado",
        "quantidade_lotes_uh": 430,
        "area_total_m2": 380000
      },
      "geometry": {
        "type": "Polygon",
        "coordinates": [
          [
            [
              -47.67,
              -22.73
            ],
            [
              -47.655,
              -22.725
            ],
            [
              -47.65,
              -22.74
            ],
            [
              -47.665,
              -22.745
            ],
            [
              -47.67,
              -22.73
            ]
          ]
        ]
      }
    },
    {
      "type": "Feature",
      "properties": {
        "PROTOCOLO": "055/2024",
        "ANO ENTRADA": 2024,
        "MUNICIPIO": "JUNDIAÍ",
        "NOME DO EMPREENDIMENTO": "Loteamento Portal da Serra Jundiaí",
        "PROPRIETARIO": "F.A. Oliva & Cia Empreendimentos",
        "LOCALIZAÇÃO/ENDEREÇO": "AUJ - Aglomeração Urbana de Jundiaí",
        "ÁREA TOTAL DA GLEBA/M²": "450000",
        "Nº DE UNIDADES HABITACIONAIS": 680,
        "DATA DE ENTRADA": "2024-01-29",
        "DATA DO CERTIFICADO": "2024-05-12",
        "Nº DO CERTIFICADO": "CERT-GRAPROHAB-120/2024",
        "SITUAÇÃO": "CERTIFICADO",
        "TIPO DE EMPREENDIMENTO": "Loteamento Aberto",
        "processo_graprohab": "055/2024",
        "nome_empreendimento": "Loteamento Portal da Serra Jundiaí",
        "municipio": "Jundiaí",
        "status_graprohab": "Aprovado com Certificado",
        "quantidade_lotes_uh": 680,
        "area_total_m2": 450000
      },
      "geometry": {
        "type": "Polygon",
        "coordinates": [
          [
            [
              -46.905,
              -23.195
            ],
            [
              -46.89,
              -23.19
            ],
            [
              -46.885,
              -23.204
            ],
            [
              -46.9,
              -23.208
            ],
            [
              -46.905,
              -23.195
            ]
          ]
        ]
      }
    },
    {
      "type": "Feature",
      "properties": {
        "PROTOCOLO": "188/2024",
        "ANO ENTRADA": 2024,
        "MUNICIPIO": "COTIA",
        "NOME DO EMPREENDIMENTO": "Condomínio Reserva da Granja Viana",
        "PROPRIETARIO": "Even Construtora e Incorporadora",
        "LOCALIZAÇÃO/ENDEREÇO": "RMSP - Região Metropolitana de São Paulo",
        "ÁREA TOTAL DA GLEBA/M²": "260000",
        "Nº DE UNIDADES HABITACIONAIS": 310,
        "DATA DE ENTRADA": "2024-06-14",
        "DATA DO CERTIFICADO": "2024-10-15 (Previsão)",
        "Nº DO CERTIFICADO": "Pendente",
        "SITUAÇÃO": "COM EXIGÊNCIAS",
        "TIPO DE EMPREENDIMENTO": "Condomínio Urbanístico",
        "processo_graprohab": "188/2024",
        "nome_empreendimento": "Condomínio Reserva da Granja Viana",
        "municipio": "Cotia",
        "status_graprohab": null,
        "quantidade_lotes_uh": 310,
        "area_total_m2": 260000
      },
      "geometry": {
        "type": "Polygon",
        "coordinates": [
          [
            [
              -46.89,
              -23.605
            ],
            [
              -46.875,
              -23.6
            ],
            [
              -46.87,
              -23.612
            ],
            [
              -46.885,
              -23.617
            ],
            [
              -46.89,
              -23.605
            ]
          ]
        ]
      }
    },
    {
      "type": "Feature",
      "properties": {
        "PROTOCOLO": "097/2024",
        "ANO ENTRADA": 2024,
        "MUNICIPIO": "SANTANA DE PARNAÍBA",
        "NOME DO EMPREENDIMENTO": "Condomínio Tamboré Residencial 12",
        "PROPRIETARIO": "Tamboré Urbanismo S.A.",
        "LOCALIZAÇÃO/ENDEREÇO": "RMSP - Região Metropolitana de São Paulo",
        "ÁREA TOTAL DA GLEBA/M²": "390000",
        "Nº DE UNIDADES HABITACIONAIS": 410,
        "DATA DE ENTRADA": "2024-02-27",
        "DATA DO CERTIFICADO": "2024-06-28",
        "Nº DO CERTIFICADO": "CERT-GRAPROHAB-201/2024",
        "SITUAÇÃO": "CERTIFICADO",
        "TIPO DE EMPREENDIMENTO": "Loteamento Fechado / Acesso Controlado",
        "processo_graprohab": "097/2024",
        "nome_empreendimento": "Condomínio Tamboré Residencial 12",
        "municipio": "Santana de Parnaíba",
        "status_graprohab": "Aprovado com Certificado",
        "quantidade_lotes_uh": 410,
        "area_total_m2": 390000
      },
      "geometry": {
        "type": "Polygon",
        "coordinates": [
          [
            [
              -46.88,
              -23.475
            ],
            [
              -46.865,
              -23.47
            ],
            [
              -46.86,
              -23.484
            ],
            [
              -46.875,
              -23.489
            ],
            [
              -46.88,
              -23.475
            ]
          ]
        ]
      }
    },
    {
      "type": "Feature",
      "properties": {
        "PROTOCOLO": "144/2024",
        "ANO ENTRADA": 2024,
        "MUNICIPIO": "PAULÍNIA",
        "NOME DO EMPREENDIMENTO": "Residencial Parque Brasil 500",
        "PROPRIETARIO": "Pacaembu Construtora S.A.",
        "LOCALIZAÇÃO/ENDEREÇO": "RMC - Região Metropolitana de Campinas",
        "ÁREA TOTAL DA GLEBA/M²": "780000",
        "Nº DE UNIDADES HABITACIONAIS": 1150,
        "DATA DE ENTRADA": "2024-03-05",
        "DATA DO CERTIFICADO": "2024-07-08",
        "Nº DO CERTIFICADO": "CERT-GRAPROHAB-260/2024",
        "SITUAÇÃO": "CERTIFICADO",
        "TIPO DE EMPREENDIMENTO": "Loteamento Aberto",
        "processo_graprohab": "144/2024",
        "nome_empreendimento": "Residencial Parque Brasil 500",
        "municipio": "Paulínia",
        "status_graprohab": "Aprovado com Certificado",
        "quantidade_lotes_uh": 1150,
        "area_total_m2": 780000
      },
      "geometry": {
        "type": "Polygon",
        "coordinates": [
          [
            [
              -47.165,
              -22.755
            ],
            [
              -47.148,
              -22.748
            ],
            [
              -47.142,
              -22.766
            ],
            [
              -47.16,
              -22.772
            ],
            [
              -47.165,
              -22.755
            ]
          ]
        ]
      }
    },
    {
      "type": "Feature",
      "properties": {
        "PROTOCOLO": "320/2024",
        "ANO ENTRADA": 2024,
        "MUNICIPIO": "SÃO CARLOS",
        "NOME DO EMPREENDIMENTO": "Residencial Damha São Carlos II",
        "PROPRIETARIO": "Encalso Damha",
        "LOCALIZAÇÃO/ENDEREÇO": "Central",
        "ÁREA TOTAL DA GLEBA/M²": "410000",
        "Nº DE UNIDADES HABITACIONAIS": 480,
        "DATA DE ENTRADA": "2024-04-18",
        "DATA DO CERTIFICADO": "2024-08-14",
        "Nº DO CERTIFICADO": "CERT-GRAPROHAB-340/2024",
        "SITUAÇÃO": "CERTIFICADO",
        "TIPO DE EMPREENDIMENTO": "Loteamento Fechado / Acesso Controlado",
        "processo_graprohab": "320/2024",
        "nome_empreendimento": "Residencial Damha São Carlos II",
        "municipio": "São Carlos",
        "status_graprohab": "Aprovado com Certificado",
        "quantidade_lotes_uh": 480,
        "area_total_m2": 410000
      },
      "geometry": {
        "type": "Polygon",
        "coordinates": [
          [
            [
              -47.885,
              -22.01
            ],
            [
              -47.87,
              -22.005
            ],
            [
              -47.865,
              -22.02
            ],
            [
              -47.88,
              -22.025
            ],
            [
              -47.885,
              -22.01
            ]
          ]
        ]
      }
    },
    {
      "type": "Feature",
      "properties": {
        "PROTOCOLO": "175/2024",
        "ANO ENTRADA": 2024,
        "MUNICIPIO": "FRANCA",
        "NOME DO EMPREENDIMENTO": "Loteamento Residencial Cristalina",
        "PROPRIETARIO": "Pilar Empreendimentos Imobiliários",
        "LOCALIZAÇÃO/ENDEREÇO": "RA de Franca",
        "ÁREA TOTAL DA GLEBA/M²": "360000",
        "Nº DE UNIDADES HABITACIONAIS": 590,
        "DATA DE ENTRADA": "2024-03-12",
        "DATA DO CERTIFICADO": "2024-07-19",
        "Nº DO CERTIFICADO": "CERT-GRAPROHAB-288/2024",
        "SITUAÇÃO": "CERTIFICADO",
        "TIPO DE EMPREENDIMENTO": "Loteamento Aberto",
        "processo_graprohab": "175/2024",
        "nome_empreendimento": "Loteamento Residencial Cristalina",
        "municipio": "Franca",
        "status_graprohab": "Aprovado com Certificado",
        "quantidade_lotes_uh": 590,
        "area_total_m2": 360000
      },
      "geometry": {
        "type": "Polygon",
        "coordinates": [
          [
            [
              -47.41,
              -20.54
            ],
            [
              -47.395,
              -20.535
            ],
            [
              -47.39,
              -20.55
            ],
            [
              -47.405,
              -20.555
            ],
            [
              -47.41,
              -20.54
            ]
          ]
        ]
      }
    },
    {
      "type": "Feature",
      "properties": {
        "PROTOCOLO": "245/2024",
        "ANO ENTRADA": 2024,
        "MUNICIPIO": "PRESIDENTE PRUDENTE",
        "NOME DO EMPREENDIMENTO": "Loteamento Damha Presidente Prudente",
        "PROPRIETARIO": "Damha Urbanizadora",
        "LOCALIZAÇÃO/ENDEREÇO": "RA de Presidente Prudente",
        "ÁREA TOTAL DA GLEBA/M²": "430000",
        "Nº DE UNIDADES HABITACIONAIS": 460,
        "DATA DE ENTRADA": "2024-04-05",
        "DATA DO CERTIFICADO": "2024-08-02",
        "Nº DO CERTIFICADO": "CERT-GRAPROHAB-305/2024",
        "SITUAÇÃO": "CERTIFICADO",
        "TIPO DE EMPREENDIMENTO": "Loteamento Fechado / Acesso Controlado",
        "processo_graprohab": "245/2024",
        "nome_empreendimento": "Loteamento Damha Presidente Prudente",
        "municipio": "Presidente Prudente",
        "status_graprohab": "Aprovado com Certificado",
        "quantidade_lotes_uh": 460,
        "area_total_m2": 430000
      },
      "geometry": {
        "type": "Polygon",
        "coordinates": [
          [
            [
              -51.405,
              -22.125
            ],
            [
              -51.39,
              -22.12
            ],
            [
              -51.385,
              -22.135
            ],
            [
              -51.4,
              -22.14
            ],
            [
              -51.405,
              -22.125
            ]
          ]
        ]
      }
    },
    {
      "type": "Feature",
      "properties": {
        "PROTOCOLO": "360/2024",
        "ANO ENTRADA": 2024,
        "MUNICIPIO": "GUARULHOS",
        "NOME DO EMPREENDIMENTO": "Conjunto Habitacional Pimentas III (CDHU)",
        "PROPRIETARIO": "CDHU - Cia Desenvolvimento Habitacional Urbano SP",
        "LOCALIZAÇÃO/ENDEREÇO": "RMSP - Região Metropolitana de São Paulo",
        "ÁREA TOTAL DA GLEBA/M²": "510000",
        "Nº DE UNIDADES HABITACIONAIS": 1400,
        "DATA DE ENTRADA": "2024-07-15",
        "DATA DO CERTIFICADO": "2024-11-20 (Previsão)",
        "Nº DO CERTIFICADO": "Pendente",
        "SITUAÇÃO": "EM ANÁLISE",
        "TIPO DE EMPREENDIMENTO": "Conjunto Habitacional HIS",
        "processo_graprohab": "360/2024",
        "nome_empreendimento": "Conjunto Habitacional Pimentas III (CDHU)",
        "municipio": "Guarulhos",
        "status_graprohab": "Em Análise Técnica",
        "quantidade_lotes_uh": 1400,
        "area_total_m2": 510000
      },
      "geometry": {
        "type": "Polygon",
        "coordinates": [
          [
            [
              -46.435,
              -23.445
            ],
            [
              -46.42,
              -23.44
            ],
            [
              -46.415,
              -23.455
            ],
            [
              -46.43,
              -23.46
            ],
            [
              -46.435,
              -23.445
            ]
          ]
        ]
      }
    },
    {
      "type": "Feature",
      "properties": {
        "PROTOCOLO": "012/2024",
        "ANO ENTRADA": 2024,
        "MUNICIPIO": "SANTOS",
        "NOME DO EMPREENDIMENTO": "Residencial Morro Nova Cintra (HIS)",
        "PROPRIETARIO": "COHAB Santista / Prefeitura Municipal de Santos",
        "LOCALIZAÇÃO/ENDEREÇO": "RMBS - Região Metropolitana da Baixada Santista",
        "ÁREA TOTAL DA GLEBA/M²": "180000",
        "Nº DE UNIDADES HABITACIONAIS": 320,
        "DATA DE ENTRADA": "2024-01-10",
        "DATA DO CERTIFICADO": "2024-04-15",
        "Nº DO CERTIFICADO": "CERT-GRAPROHAB-085/2024",
        "SITUAÇÃO": "CERTIFICADO",
        "TIPO DE EMPREENDIMENTO": "Conjunto Habitacional HIS",
        "processo_graprohab": "012/2024",
        "nome_empreendimento": "Residencial Morro Nova Cintra (HIS)",
        "municipio": "Santos",
        "status_graprohab": "Aprovado com Certificado",
        "quantidade_lotes_uh": 320,
        "area_total_m2": 180000
      },
      "geometry": {
        "type": "Polygon",
        "coordinates": [
          [
            [
              -46.335,
              -23.955
            ],
            [
              -46.322,
              -23.95
            ],
            [
              -46.318,
              -23.962
            ],
            [
              -46.331,
              -23.966
            ],
            [
              -46.335,
              -23.955
            ]
          ]
        ]
      }
    }
  ]
}